{"type": "FeatureCollection", "features": [ {"type": "Feature", "properties": {"norad_id": 43565, "name": "GSAT0222 (GALILEO 26)", "group": "gnss", "lat": -48.30482087197372, "lon": -59.7273754673211, "alt_km": 23212.124994530146, "timestamp": "2025-12-20T20:38:44.686327+00:00", "meta": {"OBJECT_NAME": "GSAT0222 (GALILEO 26)", "OBJECT_ID": "2018-060B", "EPOCH": "2025-12-18T00:42:17.845344", "MEAN_MOTION": 1.70475645, "ECCENTRICITY": 0.00060883, "INCLINATION": 57.23, "RA_OF_ASC_NODE": 346.6777, "ARG_OF_PERICENTER": 265.4214, "MEAN_ANOMALY": 94.5238, "EPHEMERIS_TYPE": 0, "CLASSIFICATION_TYPE": "U", "NORAD_CAT_ID": 43565, "ELEMENT_SET_NO": 999, "REV_AT_EPOCH": 4612, "BSTAR": 0, "MEAN_MOTION_DOT": -7.6e-07, "MEAN_MOTION_DDOT": 0}, "tle": {"line1": "1 43565U 18060B   25352.02937321 -.00000076  00000+0  00000+0 0  9994", "line2": "2 43565  57.2300 346.6777 0006088 265.4214  94.5238  1.70475645 46121"}}, "geometry": {"type": "Point", "coordinates": [-59.7273754673211, -48.30482087197372]}}, {"type": "Feature", "properties": {"norad_id": 43566, "name": "GSAT0219 (GALILEO 23)", "group": "gnss", "lat": 15.402212234276584, "lon": 156.37029227535956, "alt_km": 23231.02167819869, "timestamp": "2025-12-20T20:38:44.686338+00:00", "meta": {"OBJECT_NAME": "GSAT0219 (GALILEO 23)", "OBJECT_ID": "2018-060C", "EPOCH": "2025-12-18T20:05:25.027008", "MEAN_MOTION": 1.70475846, "ECCENTRICITY": 0.00058667, "INCLINATION": 57.2292, "RA_OF_ASC_NODE": 346.6575, "ARG_OF_PERICENTER": 289.8664, "MEAN_ANOMALY": 70.0835, "EPHEMERIS_TYPE": 0, "CLASSIFICATION_TYPE": "U", "NORAD_CAT_ID": 43566, "ELEMENT_SET_NO": 999, "REV_AT_EPOCH": 4611, "BSTAR": 0, "MEAN_MOTION_DOT": -7.4e-07, "MEAN_MOTION_DDOT": 0}, "tle": {"line1": "1 43566U 18060C   25352.83709522 -.00000074  00000+0  00000+0 0  9992", "line2": "2 43566  57.2292 346.6575 0005866 289.8664  70.0835  1.70475846 46114"}}, "geometry": {"type": "Point", "coordinates": [156.37029227535956, 15.402212234276584]}}, {"type": "Feature", "properties": {"norad_id": 43567, "name": "GSAT0220 (GALILEO 24)", "group": "gnss", "lat": 21.68092165797801, "lon": 1.434357395961891, "alt_km": 23221.838407822732, "timestamp": "2025-12-20T20:38:44.686351+00:00", "meta": {"OBJECT_NAME": "GSAT0220 (GALILEO 24)", "OBJECT_ID": "2018-060D", "EPOCH": "2025-12-19T15:28:13.770912", "MEAN_MOTION": 1.70475932, "ECCENTRICITY": 0.000607, "INCLINATION": 57.2288, "RA_OF_ASC_NODE": 346.6359, "ARG_OF_PERICENTER": 288.3471, "MEAN_ANOMALY": 71.5983, "EPHEMERIS_TYPE": 0, "CLASSIFICATION_TYPE": "U", "NORAD_CAT_ID": 43567, "ELEMENT_SET_NO": 999, "REV_AT_EPOCH": 4611, "BSTAR": 0, "MEAN_MOTION_DOT": -7.2e-07, "MEAN_MOTION_DDOT": 0}, "tle": {"line1": "1 43567U 18060D   25353.64460383 -.00000072  00000+0  00000+0 0  9990", "line2": "2 43567  57.2288 346.6359 0006070 288.3471  71.5983  1.70475932 46114"}}, "geometry": {"type": "Point", "coordinates": [1.434357395961891, 21.68092165797801]}}, {"type": "Feature", "properties": {"norad_id": 43581, "name": "BEIDOU-3 M5 (C23)", "group": "gnss", "lat": 12.122515627744317, "lon": -162.66769291048317, "alt_km": 21521.611713124476, "timestamp": "2025-12-20T20:38:44.686374+00:00", "meta": {"OBJECT_NAME": "BEIDOU-3 M5 (C23)", "OBJECT_ID": "2018-062A", "EPOCH": "2025-12-20T07:13:15.600000", "MEAN_MOTION": 1.86228934, "ECCENTRICITY": 0.00019686, "INCLINATION": 54.0899, "RA_OF_ASC_NODE": 188.386, "ARG_OF_PERICENTER": 359.6013, "MEAN_ANOMALY": 0.4548, "EPHEMERIS_TYPE": 0, "CLASSIFICATION_TYPE": "U", "NORAD_CAT_ID": 43581, "ELEMENT_SET_NO": 999, "REV_AT_EPOCH": 5030, "BSTAR": 0, "MEAN_MOTION_DOT": 9.7e-07, "MEAN_MOTION_DDOT": 0}, "tle": {"line1": "1 43581U 18062A   25354.30087500  .00000097  00000+0  00000+0 0  9994", "line2": "2 43581  54.0899 188.3860 0001968 359.6013   0.4548  1.86228934 50305"}}, "geometry": {"type": "Point", "coordinates": [-162.66769291048317, 12.122515627744317]}}, {"type": "Feature", "properties": {"norad_id": 43582, "name": "BEIDOU-3 M6 (C24)", "group": "gnss", "lat": 50.71930436125229, "lon": -54.07554573922443, "alt_km": 21510.897731744553, "timestamp": "2025-12-20T20:38:44.686389+00:00", "meta": {"OBJECT_NAME": "BEIDOU-3 M6 (C24)", "OBJECT_ID": "2018-062B", "EPOCH": "2025-12-20T03:56:01.701312", "MEAN_MOTION": 1.86229954, "ECCENTRICITY": 0.00078337, "INCLINATION": 54.0893, "RA_OF_ASC_NODE": 188.3797, "ARG_OF_PERICENTER": 47.8799, "MEAN_ANOMALY": 312.2437, "EPHEMERIS_TYPE": 0, "CLASSIFICATION_TYPE": "U", "NORAD_CAT_ID": 43582, "ELEMENT_SET_NO": 999, "REV_AT_EPOCH": 5030, "BSTAR": 0, "MEAN_MOTION_DOT": 9.8e-07, "MEAN_MOTION_DDOT": 0}, "tle": {"line1": "1 43582U 18062B   25354.16390858  .00000098  00000+0  00000+0 0  9993", "line2": "2 43582  54.0893 188.3797 0007833  47.8799 312.2437  1.86229954 50307"}}, "geometry": {"type": "Point", "coordinates": [-54.07554573922443, 50.71930436125229]}}, {"type": "Feature", "properties": {"norad_id": 43602, "name": "BEIDOU-3 M12 (C26)", "group": "gnss", "lat": 24.903267960049817, "lon": -12.508911797725881, "alt_km": 21532.977044871503, "timestamp": "2025-12-20T20:38:44.686401+00:00", "meta": {"OBJECT_NAME": "BEIDOU-3 M12 (C26)", "OBJECT_ID": "2018-067A", "EPOCH": "2025-12-19T13:33:24.239232", "MEAN_MOTION": 1.86227856, "ECCENTRICITY": 0.00092481, "INCLINATION": 54.1835, "RA_OF_ASC_NODE": 187.1314, "ARG_OF_PERICENTER": 41.3287, "MEAN_ANOMALY": 318.7989, "EPHEMERIS_TYPE": 0, "CLASSIFICATION_TYPE": "U", "NORAD_CAT_ID": 43602, "ELEMENT_SET_NO": 999, "REV_AT_EPOCH": 4977, "BSTAR": 0, "MEAN_MOTION_DOT": 1.01e-06, "MEAN_MOTION_DDOT": 0}, "tle": {"line1": "1 43602U 18067A   25353.56486388  .00000101  00000+0  00000+0 0  9993", "line2": "2 43602  54.1835 187.1314 0009248  41.3287 318.7989  1.86227856 49773"}}, "geometry": {"type": "Point", "coordinates": [-12.508911797725881, 24.903267960049817]}}, {"type": "Feature", "properties": {"norad_id": 43603, "name": "BEIDOU-3 M11 (C25)", "group": "gnss", "lat": 43.633906986431555, "lon": -129.39160067766107, "alt_km": 21508.388347332497, "timestamp": "2025-12-20T20:38:44.686415+00:00", "meta": {"OBJECT_NAME": "BEIDOU-3 M11 (C25)", "OBJECT_ID": "2018-067B", "EPOCH": "2025-12-20T05:40:20.265024", "MEAN_MOTION": 1.86227366, "ECCENTRICITY": 0.00056565, "INCLINATION": 54.1806, "RA_OF_ASC_NODE": 187.0727, "ARG_OF_PERICENTER": 37.3238, "MEAN_ANOMALY": 322.7692, "EPHEMERIS_TYPE": 0, "CLASSIFICATION_TYPE": "U", "NORAD_CAT_ID": 43603, "ELEMENT_SET_NO": 999, "REV_AT_EPOCH": 4981, "BSTAR": 0, "MEAN_MOTION_DOT": 9.7e-07, "MEAN_MOTION_DDOT": 0}, "tle": {"line1": "1 43603U 18067B   25354.23634566  .00000097  00000+0  00000+0 0  9996", "line2": "2 43603  54.1806 187.0727 0005656  37.3238 322.7692  1.86227366 49816"}}, "geometry": {"type": "Point", "coordinates": [-129.39160067766107, 43.633906986431555]}}, {"type": "Feature", "properties": {"norad_id": 43622, "name": "BEIDOU-3 M13 (C32)", "group": "gnss", "lat": 56.40526097509147, "lon": 153.99899024403692, "alt_km": 21536.07565283118, "timestamp": "2025-12-20T20:38:44.686426+00:00", "meta": {"OBJECT_NAME": "BEIDOU-3 M13 (C32)", "OBJECT_ID": "2018-072A", "EPOCH": "2025-12-19T15:44:25.442592", "MEAN_MOTION": 1.86231092, "ECCENTRICITY": 0.0006094, "INCLINATION": 56.4653, "RA_OF_ASC_NODE": 68.5911, "ARG_OF_PERICENTER": 298.8206, "MEAN_ANOMALY": 61.1557, "EPHEMERIS_TYPE": 0, "CLASSIFICATION_TYPE": "U", "NORAD_CAT_ID": 43622, "ELEMENT_SET_NO": 999, "REV_AT_EPOCH": 4931, "BSTAR": 0, "MEAN_MOTION_DOT": -5.1e-07, "MEAN_MOTION_DDOT": 0}, "tle": {"line1": "1 43622U 18072A   25353.65585003 -.00000051  00000+0  00000+0 0  9990", "line2": "2 43622  56.4653  68.5911 0006094 298.8206  61.1557  1.86231092 49316"}}, "geometry": {"type": "Point", "coordinates": [153.99899024403692, 56.40526097509147]}}, {"type": "Feature", "properties": {"norad_id": 43623, "name": "BEIDOU-3 M14 (C33)", "group": "gnss", "lat": 1.931475984698928, "lon": -112.71615822977925, "alt_km": 21536.560096020843, "timestamp": "2025-12-20T20:38:44.686437+00:00", "meta": {"OBJECT_NAME": "BEIDOU-3 M14 (C33)", "OBJECT_ID": "2018-072B", "EPOCH": "2025-12-20T01:23:54.905568", "MEAN_MOTION": 1.86231107, "ECCENTRICITY": 0.00034495, "INCLINATION": 56.4671, "RA_OF_ASC_NODE": 68.5717, "ARG_OF_PERICENTER": 329.1657, "MEAN_ANOMALY": 30.8537, "EPHEMERIS_TYPE": 0, "CLASSIFICATION_TYPE": "U", "NORAD_CAT_ID": 43623, "ELEMENT_SET_NO": 999, "REV_AT_EPOCH": 4931, "BSTAR": 0, "MEAN_MOTION_DOT": -4.7e-07, "MEAN_MOTION_DDOT": 0}, "tle": {"line1": "1 43623U 18072B   25354.05827437 -.00000047  00000+0  00000+0 0  9991", "line2": "2 43623  56.4671  68.5717 0003449 329.1657  30.8537  1.86231107 49318"}}, "geometry": {"type": "Point", "coordinates": [-112.71615822977925, 1.931475984698928]}}, {"type": "Feature", "properties": {"norad_id": 43647, "name": "BEIDOU-3 M16 (C35)", "group": "gnss", "lat": 50.554431127501374, "lon": 7.200473560114674, "alt_km": 21509.423567999496, "timestamp": "2025-12-20T20:38:44.686452+00:00", "meta": {"OBJECT_NAME": "BEIDOU-3 M16 (C35)", "OBJECT_ID": "2018-078A", "EPOCH": "2025-12-18T14:31:23.928384", "MEAN_MOTION": 1.86232416, "ECCENTRICITY": 0.00073312, "INCLINATION": 54.2565, "RA_OF_ASC_NODE": 306.3163, "ARG_OF_PERICENTER": 19.8035, "MEAN_ANOMALY": 340.2135, "EPHEMERIS_TYPE": 0, "CLASSIFICATION_TYPE": "U", "NORAD_CAT_ID": 43647, "ELEMENT_SET_NO": 999, "REV_AT_EPOCH": 4879, "BSTAR": 0, "MEAN_MOTION_DOT": -8.1e-07, "MEAN_MOTION_DDOT": 0}, "tle": {"line1": "1 43647U 18078A   25352.60513806 -.00000081  00000+0  00000+0 0  9992", "line2": "2 43647  54.2565 306.3163 0007331  19.8035 340.2135  1.86232416 48794"}}, "geometry": {"type": "Point", "coordinates": [7.200473560114674, 50.554431127501374]}}]}